CCSDS_OEM_VERS = 1.0
CREATION_DATE  = 2017-05-11T11:56:58
ORIGINATOR     = GMAT USER

META_START
OBJECT_NAME          = MOPSSat_alt_35785_km_RAAN_270_072
OBJECT_ID            = SatId
CENTER_NAME          = Earth
REF_FRAME            = EME2000
TIME_SYSTEM          = UTC
START_TIME           = 2017-01-01T00:00:00.000
USEABLE_START_TIME   = 2017-01-01T00:00:00.000
USEABLE_STOP_TIME    = 2017-01-02T00:00:00.000
STOP_TIME            = 2017-01-02T00:00:00.000
INTERPOLATION        = Lagrange
INTERPOLATION_DEGREE = 7 
META_STOP


                                                                                   

2017-01-01T22:45:50.000  -1.274618783826536e+04  -4.014912317544446e+04  -2.839052469447894e-01   2.933547655158500e+00  -9.304046542797596e-01   4.107165684756851e-04
2017-01-01T22:46:00.000  -1.271684896590423e+04  -4.015841651522934e+04  -2.797981133858762e-01   2.934226670845845e+00  -9.282632562836975e-01   4.107101187648590e-04
2017-01-01T22:46:10.000  -1.268750331090353e+04  -4.016768843864868e+04  -2.756910454986478e-01   2.934904122171089e+00  -9.261213619391885e-01   4.107034256169441e-04
2017-01-01T22:46:20.000  -1.265815088894083e+04  -4.017693894073375e+04  -2.715840457219549e-01   2.935580008769233e+00  -9.239789723932608e-01   4.106964890418056e-04
2017-01-01T22:46:30.000  -1.262879171567681e+04  -4.018616801653417e+04  -2.674771164916631e-01   2.936254330276623e+00  -9.218360887917155e-01   4.106893090494577e-04
2017-01-01T22:46:40.000  -1.259942580684426e+04  -4.019537566108915e+04  -2.633702602531287e-01   2.936927086328845e+00  -9.196927122856198e-01   4.106818856500668e-04
2017-01-01T22:46:50.000  -1.257005317821397e+04  -4.020456186943979e+04  -2.592634794563581e-01   2.937598276561627e+00  -9.175488440288156e-01   4.106742188539825e-04
2017-01-01T22:47:00.000  -1.254067384557786e+04  -4.021372663663312e+04  -2.551567765537116e-01   2.938267900611137e+00  -9.154044851766946e-01   4.106663086716984e-04
2017-01-01T22:47:10.000  -1.251128782471390e+04  -4.022286995773303e+04  -2.510501539949869e-01   2.938935958114774e+00  -9.132596368836309e-01   4.106581551138506e-04
2017-01-01T22:47:20.000  -1.248189513136996e+04  -4.023199182782661e+04  -2.469436142251150e-01   2.939602448711643e+00  -9.111143003018063e-01   4.106497581912061e-04
2017-01-01T22:47:30.000  -1.245249578122875e+04  -4.024109224203348e+04  -2.428371596793291e-01   2.940267372043220e+00  -9.089684765786529e-01   4.106411179146570e-04
2017-01-01T22:47:40.000  -1.242308978999738e+04  -4.025017119547870e+04  -2.387307927956369e-01   2.940930727751387e+00  -9.068221668633824e-01   4.106322342952460e-04
2017-01-01T22:47:50.000  -1.239367717301913e+04  -4.025922868341021e+04  -2.346245159607196e-01   2.941592515487014e+00  -9.046753722786585e-01   4.106231073440460e-04
2017-01-01T22:48:00.000  -1.236425794574371e+04  -4.026826470105620e+04  -2.305183315754896e-01   2.942252734899520e+00  -9.025280939549146e-01   4.106137370723055e-04
2017-01-01T22:48:10.000  -1.233483212354957e+04  -4.027727924367904e+04  -2.264122420303108e-01   2.942911385640832e+00  -9.003803330173871e-01   4.106041234913946e-04
2017-01-01T22:48:20.000  -1.230539972243183e+04  -4.028627230636458e+04  -2.223062498010001e-01   2.943568467349981e+00  -8.982320906363267e-01   4.105942666130103e-04
2017-01-01T22:48:30.000  -1.227596075831442e+04  -4.029524388423312e+04  -2.182003573528222e-01   2.944223979668525e+00  -8.960833679767909e-01   4.105841664489736e-04
2017-01-01T22:48:40.000  -1.224651524722753e+04  -4.030419397238483e+04  -2.140945671652687e-01   2.944877922236543e+00  -8.939341662115969e-01   4.105738230112774e-04
2017-01-01T22:48:50.000  -1.221706320483820e+04  -4.031312256604498e+04  -2.099888816664864e-01   2.945530294703268e+00  -8.917844864870587e-01   4.105632363119677e-04
2017-01-01T22:49:00.000  -1.218760464683753e+04  -4.032202966044367e+04  -2.058833032873878e-01   2.946181096718285e+00  -8.896343299512517e-01   4.105524063632342e-04
2017-01-01T22:49:10.000  -1.215813958885145e+04  -4.033091525084365e+04  -2.017778344491727e-01   2.946830327933572e+00  -8.874836977474965e-01   4.105413331773924e-04
2017-01-01T22:49:20.000  -1.212866804647489e+04  -4.033977933252825e+04  -1.976724775681686e-01   2.947477988002615e+00  -8.853325910168555e-01   4.105300167668656e-04
2017-01-01T22:49:30.000  -1.209919003528869e+04  -4.034862190079778e+04  -1.935672350581204e-01   2.948124076580134e+00  -8.831810108993648e-01   4.105184571442165e-04
2017-01-01T22:49:40.000  -1.206970557089479e+04  -4.035744295095872e+04  -1.894621093351023e-01   2.948768593321315e+00  -8.810289585366069e-01   4.105066543221590e-04
2017-01-01T22:49:50.000  -1.204021466893241e+04  -4.036624247831768e+04  -1.853571028198206e-01   2.949411537881356e+00  -8.788764350728855e-01   4.104946083135567e-04
2017-01-01T22:50:00.000  -1.201071734511317e+04  -4.037502047817253e+04  -1.812522179424373e-01   2.950052909914816e+00  -8.767234416577959e-01   4.104823191314473e-04
2017-01-01T22:50:10.000  -1.198121361513134e+04  -4.038377694583844e+04  -1.771474571301011e-01   2.950692709077523e+00  -8.745699794396662e-01   4.104697867890008e-04
2017-01-01T22:50:20.000  -1.195170349505316e+04  -4.039251187653461e+04  -1.730428228610201e-01   2.951330935018296e+00  -8.724160495939812e-01   4.104570112997046e-04
2017-01-01T22:50:30.000  -1.192218700084513e+04  -4.040122526552196e+04  -1.689383175989313e-01   2.951967587389010e+00  -8.702616532889484e-01   4.104439926771428e-04
2017-01-01T22:50:40.000  -1.189266414854936e+04  -4.040991710805181e+04  -1.648339438174684e-01   2.952602665840838e+00  -8.681067916982986e-01   4.104307309350773e-04
2017-01-01T22:50:50.000  -1.186313495360457e+04  -4.041858739956589e+04  -1.607297039057483e-01   2.953236170038871e+00  -8.659514659517205e-01   4.104172260871410e-04
2017-01-01T22:51:00.000  -1.183359943152323e+04  -4.042723613549661e+04  -1.566256002625444e-01   2.953868099647523e+00  -8.637956771842953e-01   4.104034781471436e-04
2017-01-01T22:51:10.000  -1.180405759773832e+04  -4.043586331131268e+04  -1.525216352749439e-01   2.954498454333863e+00  -8.616394265253018e-01   4.103894871290032e-04
2017-01-01T22:51:20.000  -1.177450946798499e+04  -4.044446892240438e+04  -1.484178113715172e-01   2.955127233759234e+00  -8.594827151260794e-01   4.103752530469071e-04
2017-01-01T22:51:30.000  -1.174495505801741e+04  -4.045305296416967e+04  -1.443141309828348e-01   2.955754437585544e+00  -8.573255441393577e-01   4.103607759151981e-04
2017-01-01T22:51:40.000  -1.171539438360844e+04  -4.046161543201290e+04  -1.402105965414748e-01   2.956380065475173e+00  -8.551679147192339e-01   4.103460557483670e-04
2017-01-01T22:51:50.000  -1.168582746083462e+04  -4.047015632126536e+04  -1.361072105214584e-01   2.957004117085165e+00  -8.530098280419757e-01   4.103310925612073e-04
2017-01-01T22:52:00.000  -1.165625430569259e+04  -4.047867562729356e+04  -1.320039753851213e-01   2.957626592075139e+00  -8.508512852780216e-01   4.103158863686133e-04
2017-01-01T22:52:10.000  -1.162667493425009e+04  -4.048717334545610e+04  -1.279008936040434e-01   2.958247490104144e+00  -8.486922876030029e-01   4.103004371856555e-04
2017-01-01T22:52:20.000  -1.159708936197846e+04  -4.049564947129562e+04  -1.237979675664546e-01   2.958866810844679e+00  -8.465328361490239e-01   4.102847450272552e-04
2017-01-01T22:52:30.000  -1.156749760442008e+04  -4.050410400034683e+04  -1.196951996698279e-01   2.959484553968666e+00  -8.443729320533755e-01   4.102688099085085e-04
2017-01-01T22:52:40.000  -1.153789967703753e+04  -4.051253692818015e+04  -1.155925922999402e-01   2.960100719150641e+00  -8.422125764475300e-01   4.102526318446189e-04
2017-01-01T22:52:50.000  -1.150829559559611e+04  -4.052094825028960e+04  -1.114901478840270e-01   2.960715306059563e+00  -8.400517704850572e-01   4.102362108510543e-04
2017-01-01T22:53:00.000  -1.147868537588007e+04  -4.052933796217698e+04  -1.073878688513104e-01   2.961328314364956e+00  -8.378905153209142e-01   4.102195469434447e-04
2017-01-01T22:53:10.000  -1.144906903369231e+04  -4.053770605935060e+04  -1.032857576330065e-01   2.961939743736833e+00  -8.357288121114206e-01   4.102026401375632e-04
2017-01-01T22:53:20.000  -1.141944658513989e+04  -4.054605253724773e+04  -9.918381670174495e-02   2.962549593840019e+00  -8.335666620351025e-01   4.101854904495400e-04
2017-01-01T22:53:30.000  -1.138981804624974e+04  -4.055437739134030e+04  -9.508204851846123e-02   2.963157864341866e+00  -8.314040662646404e-01   4.101680978955937e-04
2017-01-01T22:53:40.000  -1.136018343312280e+04  -4.056268061709205e+04  -9.098045555371623e-02   2.963764554909145e+00  -8.292410259781193e-01   4.101504624921329e-04
2017-01-01T22:53:50.000  -1.133054276125411e+04  -4.057096221014914e+04  -8.687904019358544e-02   2.964369665221945e+00  -8.270775423094018e-01   4.101325842553334e-04
2017-01-01T22:54:00.000  -1.130089604621433e+04  -4.057922216614888e+04  -8.277780483400680e-02   2.964973194959728e+00  -8.249136163978771e-01   4.101144632015606e-04
2017-01-01T22:54:10.000  -1.127124330347395e+04  -4.058746048076937e+04  -7.867675185642260e-02   2.965575143804930e+00  -8.227492493756217e-01   4.100960993472605e-04
2017-01-01T22:54:20.000  -1.124158454887598e+04  -4.059567714959548e+04  -7.457588369328104e-02   2.966175511433178e+00  -8.205844424019088e-01   4.100774927092464e-04
2017-01-01T22:54:30.000  -1.121191979824597e+04  -4.060387216822980e+04  -7.047520277397723e-02   2.966774297521403e+00  -8.184191966347389e-01   4.100586433044632e-04
2017-01-01T22:54:40.000  -1.118224906747897e+04  -4.061204553226779e+04  -6.637471153691857e-02   2.967371501746016e+00  -8.162535132371894e-01   4.100395511500421e-04
2017-01-01T22:54:50.000  -1.115257237251628e+04  -4.062019723730593e+04  -6.227441242623122e-02   2.967967123783510e+00  -8.140873933757174e-01   4.100202162632828e-04
